norad_id,name,regime,epoch,line1,line2,inclination,eccentricity,mean_motion,raan,arg_pericenter,mean_anomaly
36395,SDO,IGO,24035.66236844,1 36395U 10005A   24035.66236844 -.00000081  00000-0  00000-0 0    19\,2 36395  32.8468  99.6860 0002516 207.8400 322.9283  1.00277152 51406,32.8468,0.0002516,1.00277152,99.686,207.84,322.9283
36395,SDO,IGO,24036.61078602,1 36395U 10005A   24036.61078602 -.00000084  00000-0  00000-0 0    14\,2 36395  32.8488  99.6710 0002560 207.5451 305.6169  1.00276978 51411,32.8488,0.000256,1.00276978,99.671,207.5451,305.6169
36395,SDO,IGO,24037.19827404,1 36395U 10005A   24037.19827404 -.00000086  00000-0  00000-0 0    12\,2 36395  32.8500  99.6616 0002579 207.2729 157.9815  1.00276868 51421,32.85,0.0002579,1.00276868,99.6616,207.2729,157.9815
36395,SDO,IGO,24037.67206867,1 36395U 10005A   24037.67206867 -.00000086  00000-0  00000-0 0    19\,2 36395  32.8510  99.6540 0002569 207.9835 328.3176  1.00276758 51424,32.851,0.0002569,1.00276758,99.654,207.9835,328.3176
36395,SDO,IGO,24039.22918597,1 36395U 10005A   24039.22918597 -.00000086  00000-0  00000-0 0    12\,2 36395  32.8543  99.6286 0002610 208.0910 170.3528  1.00276494 51445,32.8543,0.000261,1.00276494,99.6286,208.091,170.3528
36395,SDO,IGO,24039.64086087,1 36395U 10005A   24039.64086087 -.00000085  00000-0  00000-0 0    17\,2 36395  32.8552  99.6219 0002596 208.5971 318.4671  1.00276424 51443,32.8552,0.0002596,1.00276424,99.6219,208.5971,318.4671
36395,SDO,IGO,24040.65785667,1 36395U 10005A   24040.65785667 -.00000083  00000-0  00000+0 0  1300\,2 36395  32.8574  99.6052 0002601 208.5152 325.6991  1.00276317 51424,32.8574,0.0002601,1.00276317,99.6052,208.5152,325.6991
36395,SDO,IGO,24041.16368674,1 36395U 10005A   24041.16368674 -.00000081  00000-0  00000-0 0    18\,2 36395  32.8586  99.5969 0002604 208.4219 148.4042  1.00276266 51453,32.8586,0.0002604,1.00276266,99.5969,208.4219,148.4042
36395,SDO,IGO,24042.52271605,1 36395U 10005A   24042.52271605 -.00000078  00000-0  00000-0 0    12\,2 36395  32.8616  99.5745 0002539 208.5019 278.9525  1.00276230 51473,32.8616,0.0002539,1.0027623,99.5745,208.5019,278.9525
36395,SDO,IGO,24042.66674123,1 36395U 10005A   24042.66674123 -.00000078  00000-0  00000-0 0    19\,2 36395  32.8619  99.5721 0002538 208.1529 331.2967  1.00276232 51476,32.8619,0.0002538,1.00276232,99.5721,208.1529,331.2967
36395,SDO,IGO,24043.12897135,1 36395U 10005A   24043.12897135 -.00000078  00000-0  00000-0 0    11\,2 36395  32.8628  99.5645 0002522 208.0057 138.3151  1.00276207 51472,32.8628,0.0002522,1.00276207,99.5645,208.0057,138.3151
36395,SDO,IGO,24044.12825684,1 36395U 10005A   24044.12825684 -.00000079  00000-0  00000+0 0  1327\,2 36395  32.8650  99.5481 0002472 207.3703 139.7061  1.00276235 51453,32.865,0.0002472,1.00276235,99.5481,207.3703,139.7061
36395,SDO,IGO,24044.63273601,1 36395U 10005A   24044.63273601 -.00000080  00000-0  00000-0 0    17\,2 36395  32.8661  99.5398 0002452 206.9348 322.2655  1.00276286 51498,32.8661,0.0002452,1.00276286,99.5398,206.9348,322.2655
36395,SDO,IGO,24045.65835831,1 36395U 10005A   24045.65835831 -.00000083  00000-0  00000-0 0    12\,2 36395  32.8683  99.5230 0002414 206.2561 333.2080  1.00276343 51505,32.8683,0.0002414,1.00276343,99.523,206.2561,333.208
36395,SDO,IGO,24046.14971234,1 36395U 10005A   24046.14971234 -.00000085  00000-0  00000-0 0    17\,2 36395  32.8694  99.5150 0002387 206.2645 150.5850  1.00276364 51508,32.8694,0.0002387,1.00276364,99.515,206.2645,150.585
36395,SDO,IGO,24046.67449243,1 36395U 10005A   24046.67449243 -.00000088  00000-0  00000+0 0  1344\,2 36395  32.8705  99.5064 0002375 205.9991 340.3035  1.00276403 51487,32.8705,0.0002375,1.00276403,99.5064,205.9991,340.3035
36395,SDO,IGO,24047.62086176,1 36395U 10005A   24047.62086176 -.00000092  00000-0  00000-0 0    11\,2 36395  32.8725  99.4910 0002315 206.4040 321.5512  1.00276467 51529,32.8725,0.0002315,1.00276467,99.491,206.404,321.5512
36395,SDO,IGO,24048.15459316,1 36395U 10005A   24048.15459316 -.00000094  00000-0  00000-0 0    12\,2 36395  32.8737  99.4824 0002290 206.5366 154.1030  1.00276506 51530,32.8737,0.000229,1.00276506,99.4824,206.5366,154.103
36395,SDO,IGO,24049.15711255,1 36395U 10005A   24049.15711255 -.00000096  00000-0  00000-0 0    18\,2 36395  32.8758  99.4663 0002231 207.1578 155.4055  1.00276572 51546,32.8758,0.0002231,1.00276572,99.4663,207.1578,155.4055
36395,SDO,IGO,24050.17549491,1 36395U 10005A   24050.17549491 -.00000096  00000-0  00000-0 0    13\,2 36395  32.8779  99.4501 0002168 208.0234 162.1904  1.00276635 51557,32.8779,0.0002168,1.00276635,99.4501,208.0234,162.1904
36395,SDO,IGO,24050.64418490,1 36395U 10005A   24050.64418490 -.00000095  00000-0  00000-0 0    18\,2 36395  32.8788  99.4427 0002138 208.5569 330.8610  1.00276658 51550,32.8788,0.0002138,1.00276658,99.4427,208.5569,330.861
36395,SDO,IGO,24051.16343038,1 36395U 10005A   24051.16343038 -.00000093  00000-0  00000-0 0    19\,2 36395  32.8799  99.4346 0002121 208.9687 157.9041  1.00276689 51560,32.8799,0.0002121,1.00276689,99.4346,208.9687,157.9041
36395,SDO,IGO,24051.65577632,1 36395U 10005A   24051.65577632 -.00000091  00000-0  00000-0 0    10\,2 36395  32.8808  99.4269 0002096 209.3880 335.2288  1.00276713 51568,32.8808,0.0002096,1.00276713,99.4269,209.388,335.2288
36395,SDO,IGO,24052.65166153,1 36395U 10005A   24052.65166153 -.00000085  00000-0  00000-0 0    16\,2 36395  32.8828  99.4113 0002069 210.3321 333.8137  1.00276753 51572,32.8828,0.0002069,1.00276753,99.4113,210.3321,333.8137
36395,SDO,IGO,24054.63739649,1 36395U 10005A   24054.63739649 -.00000072  00000-0  00000-0 0    18\,2 36395  32.8865  99.3804 0002044 212.4719 328.5531  1.00276772 51598,32.8865,0.0002044,1.00276772,99.3804,212.4719,328.5531
36395,SDO,IGO,24055.16166449,1 36395U 10005A   24055.16166449 -.00000069  00000-0  00000-0 0    15\,2 36395  32.8875  99.3723 0002047 213.2433 157.0499  1.00276778 51600,32.8875,0.0002047,1.00276778,99.3723,213.2433,157.0499
36395,SDO,IGO,24058.10810216,1 36395U 10005A   24058.10810216 -.00000057  00000-0  00000-0 0    17\,2 36395  32.8931  99.3267 0002082 216.5753 137.4239  1.00276640 51620,32.8931,0.0002082,1.0027664,99.3267,216.5753,137.4239
36395,SDO,IGO,24058.60932005,1 36395U 10005A   24058.60932005 -.00000057  00000-0  00000-0 0    13\,2 36395  32.8940  99.3189 0002099 216.9976 317.9482  1.00276578 51638,32.894,0.0002099,1.00276578,99.3189,216.9976,317.9482
36395,SDO,IGO,24059.59690414,1 36395U 10005A   24059.59690414 -.00000058  00000-0  00000+0 0  1412\,2 36395  32.8959  99.3036 0002133 217.8715 313.6057  1.00276494 51615,32.8959,0.0002133,1.00276494,99.3036,217.8715,313.6057
36395,SDO,IGO,24060.11287101,1 36395U 10005A   24060.11287101 -.00000058  00000-0  00000-0 0    13\,2 36395  32.8969  99.2955 0002143 218.1645 139.5837  1.00276454 51642,32.8969,0.0002143,1.00276454,99.2955,218.1645,139.5837
36395,SDO,IGO,24061.11524007,1 36395U 10005A   24061.11524007 -.00000061  00000-0  00000-0 0    17\,2 36395  32.8989  99.2799 0002181 218.6813 140.9354  1.00276336 51654,32.8989,0.0002181,1.00276336,99.2799,218.6813,140.9354
36395,SDO,IGO,24062.11766168,1 36395U 10005A   24062.11766168 -.00000065  00000-0  00000+0 0  1434\,2 36395  32.9009  99.2642 0002216 219.0290 142.4747  1.00276201 51641,32.9009,0.0002216,1.00276201,99.2642,219.029,142.4747
36395,SDO,IGO,24062.60095418,1 36395U 10005A   24062.60095418 -.00000066  00000-0  00000-0 0    16\,2 36395  32.9019  99.2566 0002240 219.4797 316.4984  1.00276132 51672,32.9019,0.000224,1.00276132,99.2566,219.4797,316.4984
36395,SDO,IGO,24063.12001819,1 36395U 10005A   24063.12001819 -.00000068  00000-0  00000-0 0    18\,2 36395  32.9030  99.2484 0002249 219.3146 144.0521  1.00276046 51687,32.903,0.0002249,1.00276046,99.2484,219.3146,144.0521
36395,SDO,IGO,24064.12246737,1 36395U 10005A   24064.12246737 -.00000070  00000-0  00000-0 0    12\,2 36395  32.9051  99.2326 0002285 219.0745 146.1881  1.00275872 51696,32.9051,0.0002285,1.00275872,99.2326,219.0745,146.1881
36395,SDO,IGO,24064.62362796,1 36395U 10005A   24064.62362796 -.00000071  00000-0  00000-0 0    12\,2 36395  32.9062  99.2247 0002299 219.4277 326.7593  1.00275778 51690,32.9062,0.0002299,1.00275778,99.2247,219.4277,326.7593
36395,SDO,IGO,24069.19667170,1 36395U 10005A   24069.19667170 -.00000063  00000-0  00000+0 0  1463\,2 36395  32.9161  99.1505 0002275 219.3403 177.7630  1.00275100 51718,32.9161,0.0002275,1.002751,99.1505,219.3403,177.763
36395,SDO,IGO,24069.63992774,1 36395U 10005A   24069.63992774 -.00000061  00000-0  00000-0 0    12\,2 36395  32.9172  99.1432 0002278 218.1348 338.9884  1.00275098 51748,32.9172,0.0002278,1.00275098,99.1432,218.1348,338.9884
36395,SDO,IGO,24070.36499022,1 36395U 10005A   24070.36499022 -.00000060  00000-0  00000-0 0    11\,2 36395  32.9190  99.1313 0002249 217.9901 240.8875  1.00275074 51752,32.919,0.0002249,1.00275074,99.1313,217.9901,240.8875
36395,SDO,IGO,24070.65326562,1 36395U 10005A   24070.65326562 -.00000060  00000-0  00000-0 0    11\,2 36395  32.9196  99.1266 0002232 217.6529 345.2950  1.00275079 51759,32.9196,0.0002232,1.00275079,99.1266,217.6529,345.295
36395,SDO,IGO,24072.07072682,1 36395U 10005A   24072.07072682 -.00000062  00000-0  00000+0 0  1483\,2 36395  32.9229  99.1035 0002156 217.0050 137.6594  1.00275092 51738,32.9229,0.0002156,1.00275092,99.1035,217.005,137.6594
36395,SDO,IGO,24072.57197705,1 36395U 10005A   24072.57197705 -.00000064  00000-0  00000-0 0    13\,2 36395  32.9240  99.0953 0002130 216.5726 319.0480  1.00275143 51776,32.924,0.000213,1.00275143,99.0953,216.5726,319.048
36395,SDO,IGO,24073.07318727,1 36395U 10005A   24073.07318727 -.00000066  00000-0  00000+0 0  1492\,2 36395  32.9252  99.0871 0002101 216.5576 140.0043  1.00275155 51746,32.9252,0.0002101,1.00275155,99.0871,216.5576,140.0043
36395,SDO,IGO,24073.57435450,1 36395U 10005A   24073.57435450 -.00000068  00000-0  00000-0 0    10\,2 36395  32.9264  99.0789 0002075 216.2660 321.2222  1.00275201 51786,32.9264,0.0002075,1.00275201,99.0789,216.266,321.2222
